NORAD_CAT_ID,OBJECT_NAME,OBJECT_TYPE,EPOCH,MEAN_MOTION,ECCENTRICITY,INCLINATION,RA_OF_ASC_NODE,ARG_OF_PERICENTER,MEAN_ANOMALY,BSTAR,MEAN_MOTION_DOT,MEAN_MOTION_DDOT,TLE_LINE0,TLE_LINE1,TLE_LINE2,SEMIMAJOR_AXIS,PERIOD,APOGEE,PERIGEE,DECAYED
49137.0,STARLINK-3055,PAYLOAD,2022-07-26 12:45:55,14.96723872,0.0003131,70.0011,7.8809,254.9724,105.1087,0.00014379,1.555e-05,0.0,0 STARLINK-3055,1 49137U 21082H   22207.53189650  .00001555  00000-0  14379-3 0  9990,2 49137  70.0011   7.8809 0003131 254.9724 105.1087 14.96723872 48438,6955.1640000000025,96.21,579.207,574.851,0.0
49137.0,STARLINK-3055,PAYLOAD,2022-07-26 17:34:38,14.96725961,0.0003073,70.001,7.3764,252.909,107.1732,0.00012103,1.294e-05,0.0,0 STARLINK-3055,1 49137U 21082H   22207.73239044  .00001294  00000-0  12103-3 0  9998,2 49137  70.0010   7.3764 0003073 252.9090 107.1732 14.96725961 48464,6955.158,96.21,579.16,574.885,0.0
49137.0,STARLINK-3055,PAYLOAD,2022-07-26 20:47:06,14.96727768,0.0003112,70.0012,7.0405,257.0508,103.0303,0.00015573,1.692e-05,0.0,0 STARLINK-3055,1 49137U 21082H   22207.86605192  .00001692  00000-0  15573-3 0  9999,2 49137  70.0012   7.0405 0003112 257.0508 103.0303 14.96727768 48487,6955.151999999999,96.21,579.182,574.8530000000002,0.0
49137.0,STARLINK-3055,PAYLOAD,2022-07-27 12:49:30,14.96713854,0.0003024,70.0011,5.3596,254.7306,105.3518,-6.2664e-05,-8.09e-06,0.0,0 STARLINK-3055,1 49137U 21082H   22208.53438318 -.00000809  00000-0 -62664-4 0  9993,2 49137  70.0011   5.3596 0003024 254.7306 105.3518 14.96713854 48585,6955.195,96.211,579.163,574.957,0.0
49137.0,STARLINK-3055,PAYLOAD,2022-07-27 14:25:45,14.96713131,0.0003038999999999,70.0013,5.1914,255.1449,104.9373,-7.579699999999999e-05,-9.59e-06,0.0,0 STARLINK-3055,1 49137U 21082H   22208.60121577 -.00000959  00000-0 -75797-4 0  9994,2 49137  70.0013   5.1914 0003039 255.1449 104.9373 14.96713131 48591,6955.196999999999,96.211,579.1759999999998,574.9490000000002,0.0
49137.0,STARLINK-3055,PAYLOAD,2022-07-27 19:14:27,14.96715215,0.0003241,70.0012,4.6876,255.1455,104.9344,-3.7442e-05,-5.2e-06,0.0,0 STARLINK-3055,1 49137U 21082H   22208.80170926 -.00000520  00000-0 -37442-4 0  9997,2 49137  70.0012   4.6876 0003241 255.1455 104.9344 14.96715215 48620,6955.191,96.211,579.31,574.802,0.0
49137.0,STARLINK-3055,PAYLOAD,2022-07-28 11:16:50,14.96717579,0.0003223,70.0012,3.0068,254.9812,105.099,-4.9654e-05,-6.6e-06,0.0,0 STARLINK-3055,1 49137U 21082H   22209.47002726 -.00000660  00000-0 -49654-4 0  9996,2 49137  70.0012   3.0068 0003223 254.9812 105.0990 14.96717579 48725,6955.184,96.211,579.29,574.807,0.0
49137.0,STARLINK-3055,PAYLOAD,2022-07-28 20:54:15,14.96719145,0.0003236,70.0014,1.9983,257.4837,102.5959,-1.6243e-05,-2.78e-06,0.0,0 STARLINK-3055,1 49137U 21082H   22209.87101695 -.00000278  00000-0 -16243-4 0  9998,2 49137  70.0014   1.9983 0003236 257.4837 102.5959 14.96719145 48783,6955.179,96.21,579.294,574.793,0.0
49137.0,STARLINK-3055,PAYLOAD,2022-07-29 20:57:49,14.96716838,0.0003256,70.0015,359.4774,253.905,106.175,0.0001242999999999,1.331e-05,0.0,0 STARLINK-3055,1 49137U 21082H   22210.87349466  .00001331  00000-0  12430-3 0  9992,2 49137  70.0015 359.4774 0003256 253.9050 106.1750 14.96716838 48935,6955.186,96.211,579.316,574.786,0.0
49137.0,STARLINK-3055,PAYLOAD,2022-07-30 03:22:47,14.96717757,0.0003268,70.0016,358.805,253.9642,106.1157,0.00011906,1.271e-05,0.0,0 STARLINK-3055,1 49137U 21082H   22211.14082191  .00001271  00000-0  11906-3 0  9992,2 49137  70.0016 358.8050 0003268 253.9642 106.1157 14.96717757 48972,6955.183000000001,96.211,579.321,574.775,0.0
49137.0,STARLINK-3055,PAYLOAD,2022-07-30 19:25:09,14.96722542,0.0003306,70.0013,357.1237,253.6595,106.42,0.00011005,1.168e-05,0.0,0 STARLINK-3055,1 49137U 21082H   22211.80913680  .00001168  00000-0  11005-3 0  9996,2 49137  70.0013 357.1237 0003306 253.6595 106.4200 14.96722542 49077,6955.168000000002,96.21,579.3330000000002,574.734,0.0
49137.0,STARLINK-3055,PAYLOAD,2022-07-31 03:26:20,14.96724348,0.0003297,70.0014,356.2835,253.6289,106.4507,0.00010746,1.139e-05,0.0,0 STARLINK-3055,1 49137U 21082H   22212.14329396  .00001139  00000-0  10746-3 0  9998,2 49137  70.0014 356.2835 0003297 253.6289 106.4507 14.96724348 49123,6955.163000000001,96.21,579.321,574.735,0.0
49137.0,STARLINK-3055,PAYLOAD,2022-07-31 09:51:17,14.96726271,0.0003298,70.0014,355.6112,253.575,106.5046,9.9409e-05,1.047e-05,0.0,0 STARLINK-3055,1 49137U 21082H   22212.41061937  .00001047  00000-0  99409-4 0  9994,2 49137  70.0014 355.6112 0003298 253.5750 106.5046 14.96726271 49167,6955.156999999997,96.21,579.316,574.7280000000002,0.0
49137.0,STARLINK-3055,PAYLOAD,2022-07-31 16:16:14,14.9672575,0.00033,70.0014,354.9389,253.6056,106.474,8.623200000000001e-05,8.96e-06,0.0,0 STARLINK-3055,1 49137U 21082H   22212.67794624  .00000896  00000-0  86232-4 0  9999,2 49137  70.0014 354.9389 0003300 253.6056 106.4740 14.96725750 49205,6955.158,96.21,579.319,574.7280000000002,0.0
49137.0,STARLINK-3055,PAYLOAD,2022-08-01 09:54:53,14.96707899,0.0003097,70.0013,353.0899,253.5646,106.5172,-0.0001356,-1.643e-05,0.0,0 STARLINK-3055,1 49137U 21082H   22213.41311654 -.00001643  00000-0 -13560-3 0  9996,2 49137  70.0013 353.0899 0003097 253.5646 106.5172 14.96707899 49313,6955.214,96.211,579.2330000000002,574.925,0.0
49137.0,STARLINK-3055,PAYLOAD,2022-08-01 16:19:50,14.96699029,0.0003136,70.0023,352.4184,254.6685,105.4127,-1.8231e-05,-3e-06,0.0,0 STARLINK-3055,1 49137U 21082H   22213.68044863 -.00000300  00000-0 -18231-4 0  9990,2 49137  70.0023 352.4184 0003136 254.6685 105.4127 14.96699029 49350,6955.241,96.212,579.2869999999998,574.925,0.0
49137.0,STARLINK-3055,PAYLOAD,2022-08-02 01:57:17,14.9666334,0.0002948999999999,70.0008,351.4092,249.0517,111.0326,0.00064341,7.271e-05,0.0,0 STARLINK-3055,1 49137U 21082H   22214.08145565  .00007271  00000-0  64341-3 0  9990,2 49137  70.0008 351.4092 0002949 249.0517 111.0326 14.96663340 49411,6955.352,96.214,579.268,575.1659999999998,0.0
49137.0,STARLINK-3055,PAYLOAD,2022-08-02 11:34:42,14.96707605,0.0003328,70.0016,350.4013,254.9114,105.1676,-0.00011939,-1.458e-05,0.0,0 STARLINK-3055,1 49137U 21082H   22214.48243385 -.00001458  00000-0 -11939-3 0  9991,2 49137  70.0016 350.4013 0003328 254.9114 105.1676 14.96707605 49473,6955.215,96.211,579.394,574.765,0.0
49137.0,STARLINK-3055,PAYLOAD,2022-08-03 11:38:17,14.96701871,0.0003238,70.0015,347.8802,253.3119,106.7684,0.00012595,1.35e-05,0.0,0 STARLINK-3055,1 49137U 21082H   22215.48492077  .00001350  00000-0  12595-3 0  9994,2 49137  70.0015 347.8802 0003238 253.3119 106.7684 14.96701871 49628,6955.232,96.212,579.349,574.845,0.0
49137.0,STARLINK-3055,PAYLOAD,2022-08-03 14:50:45,14.96702428,0.0003255,70.0016,347.5441,253.4767,106.6034,0.00012774,1.3699999999999998e-05,0.0,0 STARLINK-3055,1 49137U 21082H   22215.61858573  .00001370  00000-0  12774-3 0  9997,2 49137  70.0016 347.5441 0003255 253.4767 106.6034 14.96702428 49643,6955.231,96.212,579.36,574.832,0.0
49137.0,STARLINK-3055,PAYLOAD,2022-08-04 11:41:50,14.96717082,0.0003523999999999,70.0018,345.3571,254.7386,105.3382,0.00040451,4.542e-05,0.0,0 STARLINK-3055,1 49137U 21082H   22216.48738526  .00004542  00000-0  40451-3 0  9995,2 49137  70.0018 345.3571 0003524 254.7386 105.3382 14.96717082 49773,6955.185,96.211,579.501,574.599,0.0
49137.0,STARLINK-3055,PAYLOAD,2022-08-04 13:18:04,14.96718782,0.0003495,70.0016,345.1887,255.575,104.5021,0.00038756,4.348e-05,0.0,0 STARLINK-3055,1 49137U 21082H   22216.55421648  .00004348  00000-0  38756-3 0  9996,2 49137  70.0016 345.1887 0003495 255.5750 104.5021 14.96718782 49780,6955.18,96.21,579.476,574.614,0.0
49137.0,STARLINK-3055,PAYLOAD,2022-08-04 18:06:46,14.96728681,0.0003221999999999,70.0015,344.6861,253.0294,107.0511,0.00029703,3.311e-05,0.0,0 STARLINK-3055,1 49137U 21082H   22216.75470792  .00003311  00000-0  29703-3 0  9993,2 49137  70.0015 344.6861 0003222 253.0294 107.0511 14.96728681 49814,6955.149,96.21,579.255,574.773,0.0
49137.0,STARLINK-3055,PAYLOAD,2022-08-05 11:45:24,14.96721666,0.000316,70.0014,342.8371,250.5526,109.5291,0.000146,1.58e-05,0.0,0 STARLINK-3055,1 49137U 21082H   22217.48986317  .00001580  00000-0  14600-3 0  9995,2 49137  70.0014 342.8371 0003160 250.5526 109.5291 14.96721666 49920,6955.170999999999,96.21,579.234,574.8380000000002,0.0
49137.0,STARLINK-3055,PAYLOAD,2022-08-06 11:48:57,14.96734063,0.0003111,70.0016,340.3161,251.2153,108.8668,9.2095e-06,1.4e-07,0.0,0 STARLINK-3055,1 49137U 21082H   22218.49232915  .00000014  00000-0  92095-5 0  9992,2 49137  70.0016 340.3161 0003111 251.2153 108.8668 14.96734063 50075,6955.1330000000025,96.209,579.161,574.8340000000002,0.0
49137.0,STARLINK-3055,PAYLOAD,2022-08-06 18:13:54,14.96732612,0.0003478999999999,70.0011,339.644,257.0187,103.0583,-2.3795e-05,-3.64e-06,0.0,0 STARLINK-3055,1 49137U 21082H   22218.75965582 -.00000364  00000-0 -23795-4 0  9994,2 49137  70.0011 339.6440 0003479 257.0187 103.0583 14.96732612 50115,6955.137,96.21,579.422,574.582,0.0
49137.0,STARLINK-3055,PAYLOAD,2022-08-07 11:52:32,14.96716525,0.0003138,70.0021,337.7961,251.6096,108.4721,-1.7804e-05,-2.95e-06,0.0,0 STARLINK-3055,1 49137U 21082H   22219.49481524 -.00000295  00000-0 -17804-4 0  9992,2 49137  70.0021 337.7961 0003138 251.6096 108.4721 14.96716525 50224,6955.187,96.211,579.234,574.869,0.0
49137.0,STARLINK-3055,PAYLOAD,2022-08-07 18:17:28,14.967193099999998,0.000306,70.0021,337.1236,247.5729,112.5105,1.0496e-05,2.9e-07,0.0,0 STARLINK-3055,1 49137U 21082H   22219.76214015  .00000029  00000-0  10496-4 0  9994,2 49137  70.0021 337.1236 0003060 247.5729 112.5105 14.96719310 50265,6955.178000000001,96.21,579.172,574.915,0.0
49137.0,STARLINK-3055,PAYLOAD,2022-08-08 00:42:25,14.96723806,0.0003034,70.0023,336.4518,250.7505,109.3325,4.2926e-05,4e-06,0.0,0 STARLINK-3055,1 49137U 21082H   22220.02946352  .00000400  00000-0  42926-4 0  9997,2 49137  70.0023 336.4518 0003034 250.7505 109.3325 14.96723806 50309,6955.1640000000025,96.21,579.14,574.919,0.0
